#aV2010  4 13  0  0   .00000000      96 DD+AD WGS84 FIT  NGA
## 1579 172800.00000000   900.00000000 55299  .0000000000000
+   31     1  2  3  4  5  6  7  8  9 10 11 12 13 14 15 16 17
+         18 19 20 21 22 23 24 26 27 28 29 30 31 32  0  0  0
+          0  0  0  0  0  0  0  0  0  0  0  0  0  0  0  0  0
+          0  0  0  0  0  0  0  0  0  0  0  0  0  0  0  0  0
+          0  0  0  0  0  0  0  0  0  0  0  0  0  0  0  0  0
++         0  0  0  0  0  0  0  0  0  0  0  0  0  0  0  0  0
++         0  0  0  0  0  0  0  0  0  0  0  0  0  0  0  0  0
++         0  0  0  0  0  0  0  0  0  0  0  0  0  0  0  0  0
++         0  0  0  0  0  0  0  0  0  0  0  0  0  0  0  0  0
++         0  0  0  0  0  0  0  0  0  0  0  0  0  0  0  0  0
%c cc cc ccc ccc cccc cccc cccc cccc ccccc ccccc ccccc ccccc
%c cc cc ccc ccc cccc cccc cccc cccc ccccc ccccc ccccc ccccc
%f  0.0000000  0.000000000  0.00000000000  0.000000000000000
%f  0.0000000  0.000000000  0.00000000000  0.000000000000000
%i    0    0    0    0      0      0      0      0         0
%i    0    0    0    0      0      0      0      0         0
/*      NGA, ST. LOUIS,MO.                                  
/*   EPHEMERIS COMPUTED FROM  3 DAYS OF DATA                
/* CCCCCCCCCCCCCCCCCCCCCCCCCCCCCCCCCCCCCCCCCCCCCCCCCCCCCCCCC
/* CCCCCCCCCCCCCCCCCCCCCCCCCCCCCCCCCCCCCCCCCCCCCCCCCCCCCCCCC
*  2010  4 13  5  0   .00000000                                                 
P  1   7550.457564  13807.883395 -21538.412504   -108.795159                    
V  1 -26502.239741   5348.846783  -5752.240481      -.040510                    
P  2 -16192.291418    -45.001019 -21022.431601    245.930929                    
V  2   7816.162135 -25615.133095  -6427.896293       .036454                    
P  3  21691.373805   5676.161727  14135.999348    541.185592                    
V  3  11682.809563  14629.758622 -22868.899967       .050457                    
P  4  -9651.363806 -15262.202744 -19531.302331     58.782541                    
V  4   9900.496876 -22603.388256  13241.941286       .085849                    
P  5 -26174.210044   1579.599442  -4528.231607     -1.902271                    
V  5   5120.658658  -3738.935988 -30959.185754       .001504                    
P  6  21588.365091   9757.339056  12325.110097    667.735990                    
V  6   8421.733262  13175.652666 -25426.538881      -.093235                    
P  7   5833.630390 -25399.698058   4649.844198       .561927                    
V  7   4432.091801  -4707.992814 -31364.371546      -.004105                    
P  8  -2168.660060 -20867.266335  15938.414992      4.821028                    
V  8   9678.857791 -18050.412304 -22799.510852       .002198                    
P  9 -14901.830926  17152.632992  13174.832559       .603612                    
V  9   3634.614809 -17339.106945  25695.670233       .021105                    
P 10 -23338.368738  -5069.576485 -12162.642929    -40.193813                    
V 10  14518.328978  -4532.570150 -26027.394514      -.008248                    
P 11  11298.150886 -21091.842592  10889.214615    -56.223819                    
V 11   2940.287092  14945.665789  25664.953113      -.023276                    
P 12 -20307.445172  11895.324147 -12108.344846   -127.303774                    
V 12 -15654.805169    416.374715  26689.879576       .044350                    
P 13   -258.251599 -19877.474145 -17740.685026    305.358938                    
V 13  13993.308417  17254.443706 -19707.057558      -.003573                    
P 14  15062.101243  21872.164039   2100.502802     33.273915                    
V 14  -3007.319950   -822.822041  32083.131920       .046159                    
P 15 -17101.965035   2244.221583  20244.022818   -287.277215                    
V 15 -16108.662825 -20001.909263 -11283.884807       .047373                    
P 16  24530.791467   3153.667759  -9999.774083    -60.999518                    
V 16 -12210.221313   3915.119390 -28314.373153      -.038859                    
P 17 -15334.795042 -21701.147696   2438.769308    143.889059                    
V 17   3914.428413    640.463041  31402.136307       .026579                    
P 18  -2418.948564  16114.442221  21186.033670     61.523093                    
V 18 -26251.212132   3291.773721  -5947.210383       .024807                    
P 19  16473.743919  -2185.555432  20816.997963    -27.741422                    
V 19  14798.363059  21747.012790  -9146.603202      -.025653                    
P 20  17521.018518 -14266.434606 -14057.076610     57.828721                    
V 20  17870.961003  -1051.550268  23625.598039      -.006585                    
P 21  -2102.091279  24665.839660   9030.960510    -53.107720                    
V 21  -7494.019964   9225.960979 -28569.281635      -.025541                    
P 22  11003.548047  13449.982694  20266.642135    174.645669                    
V 22 -24999.786187   4924.055556  10300.351883      -.010249                    
P 23   7915.220714 -13534.381401 -21423.135804    374.412076                    
V 23  17876.064843  20462.893138  -6634.389668      -.012623                    
P 24  -1395.462991  24197.511604  11258.032215    278.638796                    
V 24  -7733.735691  12033.929795 -26787.836014       .031268                    
P 26  -3966.944834  16436.511790  19792.729025    -38.785315                    
V 26 -16638.539053 -20574.434089  13812.679260      -.046055                    
P 27 -15872.432794  14079.606663  16571.120972    142.592783                    
V 27   4340.216236 -19359.193246  21642.956900       .032791                    
P 28  -8415.537689 -13767.466239  21620.845938    -18.614543                    
V 28  25936.719789  -4170.778968   7323.412542       .008005                    
P 29   -590.156969  19474.183615 -17974.835333    112.228243                    
V 29 -15555.156662 -17019.778067 -17796.902764       .028957                    
P 30  -9881.497659  16063.545168 -19072.558268    233.256097                    
V 30 -23172.480926   3799.923753  15580.811479       .033483                    
P 31  10103.229899  12976.969116 -20605.378241    -42.452703                    
V 31  -9910.503285  24746.359957  10787.672421       .020397                    
P 32  24388.471901  -7076.258721  -6829.546636     52.682398                    
V 32   9452.851519   2187.732999  30307.366151      -.085399                    
EOF
